ORBCOMM-X               
1 21576U 91050C   24246.41317461  .00001251  00000+0  38894-3 0  9994
2 21576  98.3837 312.3773 0003244 356.6500   3.4668 14.42695507740613
ORBCOMM FM01            
1 23545U 95017A   24246.59251648  .00013972  00000+0  17520-2 0  9997
2 23545  69.9655  67.5791 0003047  29.0305 331.1015 14.82297630569768
ORBCOMM FM02            
1 23546U 95017B   24246.58064184  .00015264  00000+0  19262-2 0  9995
2 23546  69.9670  87.2106 0004847  27.0947 333.0456 14.82001794569409
ORBCOMM FM08            
1 25112U 97084A   24246.53676520  .00004892  00000+0  14764-2 0  9997
2 25112  45.0145 306.5105 0009225 244.3717 115.6181 14.43383607399775
ORBCOMM FM10            
1 25113U 97084B   24246.55208121  .00004827  00000+0  14611-2 0  9997
2 25113  45.0160 308.3978 0006405 225.0230 135.0102 14.43269338574929
ORBCOMM FM11            
1 25114U 97084C   24246.58156561  .00004821  00000+0  14638-2 0  9994
2 25114  45.0143 308.4309 0007177 223.0774 136.9515 14.43112627399895
ORBCOMM FM12            
1 25115U 97084D   24246.54446143  .00004451  00000+0  13563-2 0  9994
2 25115  45.0152 308.3458 0006260 225.3923 134.6417 14.43065230399683
ORBCOMM FM09            
1 25116U 97084E   24246.55866758  .00004733  00000+0  14405-2 0  9993
2 25116  45.0154 308.9995 0006780 210.6097 149.4358 14.43028514399899
